NORAD_CAT_ID,OBJECT_NAME,OBJECT_TYPE,EPOCH,MEAN_MOTION,ECCENTRICITY,INCLINATION,RA_OF_ASC_NODE,ARG_OF_PERICENTER,MEAN_ANOMALY,BSTAR,MEAN_MOTION_DOT,MEAN_MOTION_DDOT,TLE_LINE0,TLE_LINE1,TLE_LINE2,SEMIMAJOR_AXIS,PERIOD,APOGEE,PERIGEE,DECAYED
53805.0,STARLINK-4763,PAYLOAD,2023-12-22 02:08:15,15.08841021,0.0001471,53.2182,279.1975,96.9512,263.1647,0.00012297,1.67e-05,0.0,0 STARLINK-4763,1 53805U 22111AJ  23356.08906911  .00001670  00000-0  12297-3 0  9999,2 53805  53.2182 279.1975 0001471  96.9512 263.1647 15.08841021 71950,6917.877,95.437,540.76,538.725,0.0
53805.0,STARLINK-4763,PAYLOAD,2023-12-23 03:34:25,15.08852844,0.0001463,53.2183,274.4377,94.6732,265.4427,8.8668e-05,1.124e-05,0.0,0 STARLINK-4763,1 53805U 22111AJ  23357.14890179  .00001124  00000-0  88668-4 0  9995,2 53805  53.2183 274.4377 0001463  94.6732 265.4427 15.08852844 71300,6917.841,95.437,540.718,538.694,0.0
53805.0,STARLINK-4763,PAYLOAD,2023-12-23 22:39:03,15.08835492,0.0001541,53.2171,270.8718,102.4136,257.7029,-2.6268e-05,-7.06e-06,0.0,0 STARLINK-4763,1 53805U 22111AJ  23357.94379230 -.00000706  00000-0 -26268-4 0  9998,2 53805  53.2171 270.8718 0001541 102.4136 257.7029 15.08835492 72234,6917.894,95.438,540.825,538.693,0.0
53805.0,STARLINK-4763,PAYLOAD,2023-12-24 03:25:13,15.08841838,0.0001561,53.2183,269.98,97.5093,262.6077,8.3454e-05,1.04e-05,0.0,0 STARLINK-4763,1 53805U 22111AJ  23358.14251211  .00001040  00000-0  83454-4 0  9999,2 53805  53.2183 269.9800 0001561  97.5093 262.6077 15.08841838 71458,6917.875,95.437,540.82,538.66,0.0
53805.0,STARLINK-4763,PAYLOAD,2023-12-24 22:29:50,15.08843878,0.000152,53.218,266.4145,108.1754,251.9404,2.7535e-05,1.5e-06,0.0,0 STARLINK-4763,1 53805U 22111AJ  23358.93739313  .00000150  00000-0  27535-4 0  9999,2 53805  53.2180 266.4145 0001520 108.1754 251.9404 15.08843878 72381,6917.869,95.437,540.785,538.682,0.0
53805.0,STARLINK-4763,PAYLOAD,2023-12-25 01:40:36,15.08850861,0.0001453,53.2174,265.8221,88.3731,271.7428,3.8196e-05,3.2e-06,0.0,0 STARLINK-4763,1 53805U 22111AJ  23359.06986801  .00000320  00000-0  38196-4 0  9994,2 53805  53.2174 265.8221 0001453  88.3731 271.7428 15.08850861 72400,6917.847,95.437,540.717,538.707,0.0
53805.0,STARLINK-4763,PAYLOAD,2023-12-25 22:20:38,15.08840495,0.0001633,53.2183,261.9535,78.8738,281.2438,4.9822e-05,5.05e-06,0.0,0 STARLINK-4763,1 53805U 22111AJ  23359.93099609  .00000505  00000-0  49822-4 0  9994,2 53805  53.2183 261.9535 0001633  78.8738 281.2438 15.08840495 72539,6917.879,95.438,540.874,538.614,0.0
53805.0,STARLINK-4763,PAYLOAD,2023-12-26 03:06:46,15.08849117,0.0001451,53.2174,261.0604,98.4755,261.6402,0.00013602,1.878e-05,0.0,0 STARLINK-4763,1 53805U 22111AJ  23360.12970678  .00001878  00000-0  13602-3 0  9991,2 53805  53.2174 261.0604 0001451  98.4755 261.6402 15.08849117 71758,6917.853,95.437,540.721,538.714,0.0
53805.0,STARLINK-4763,PAYLOAD,2023-12-26 17:25:15,15.08841959,0.0001537,53.2169,258.3861,89.173,270.9438,-8.0056e-06,-4.15e-06,0.0,0 STARLINK-4763,1 53805U 22111AJ  23360.72587644 -.00000415  00000-0 -80056-5 0  9991,2 53805  53.2169 258.3861 0001537  89.1730 270.9438 15.08841959 71849,6917.874,95.437,540.803,538.676,0.0
53805.0,STARLINK-4763,PAYLOAD,2023-12-26 22:11:24,15.08845292,0.0002247,53.2181,257.4902,131.7815,228.337,-1.6781e-05,-5.55e-06,0.0,0 STARLINK-4763,1 53805U 22111AJ  23360.92459148 -.00000555  00000-0 -16781-4 0  9998,2 53805  53.2181 257.4902 0002247 131.7815 228.3370 15.08845292 72685,6917.864,95.437,541.284,538.175,0.0
53805.0,STARLINK-4763,PAYLOAD,2023-12-26 23:46:48,15.08843568,0.0001457,53.2171,257.1963,87.6391,272.4767,-5.3845e-06,-3.74e-06,0.0,0 STARLINK-4763,1 53805U 22111AJ  23360.99083473 -.00000374  00000-0 -53845-5 0  9991,2 53805  53.2171 257.1963 0001457  87.6391 272.4767 15.08843568 72693,6917.869,95.437,540.742,538.727,0.0
53805.0,STARLINK-4763,PAYLOAD,2023-12-27 22:02:11,15.08847938,0.0001647,53.2185,253.033,116.4738,243.6423,3.1671e-05,2.16e-06,0.0,0 STARLINK-4763,1 53805U 22111AJ  23361.91819115  .00000216  00000-0  31671-4 0  9999,2 53805  53.2185 253.0330 0001647 116.4738 243.6423 15.08847938 72838,6917.856,95.437,540.86,538.582,0.0
53805.0,STARLINK-4763,PAYLOAD,2023-12-28 02:48:20,15.0885112,0.0001503,53.2176,252.1385,116.4738,243.6408,6.6665e-05,7.73e-06,0.0,0 STARLINK-4763,1 53805U 22111AJ  23362.11690729  .00000773  00000-0  66665-4 0  9999,2 53805  53.2176 252.1385 0001503 116.4738 243.6408 15.08851120 72054,6917.846,95.437,540.751,538.672,0.0
53805.0,STARLINK-4763,PAYLOAD,2023-12-28 20:17:36,15.08839274,0.0001399,53.2167,248.8639,105.277,254.8376,1.4641e-05,-5.5e-07,0.0,0 STARLINK-4763,1 53805U 22111AJ  23362.84555704 -.00000055  00000-0  14641-4 0  9993,2 53805  53.2167 248.8639 0001399 105.2770 254.8376 15.08839274 72978,6917.883,95.438,540.715,538.78,0.0
53805.0,STARLINK-4763,PAYLOAD,2023-12-29 02:39:08,15.0883739,0.0001414,53.2168,247.6759,106.9601,253.1546,-4.2156e-07,-2.95e-06,0.0,0 STARLINK-4763,1 53805U 22111AJ  23363.11051890 -.00000295  00000-0 -42156-6 0  9992,2 53805  53.2168 247.6759 0001414 106.9601 253.1546 15.08837390 72202,6917.888,95.438,540.732,538.775,0.0
53805.0,STARLINK-4763,PAYLOAD,2023-12-29 21:43:46,15.08843971,0.0001241,53.2166,244.1067,89.2503,270.8631,1.6162e-05,-3.1e-07,0.0,0 STARLINK-4763,1 53805U 22111AJ  23363.90539554 -.00000031  00000-0  16162-4 0  9990,2 53805  53.2166 244.1067 0001241  89.2503 270.8631 15.08843971 73132,6917.868,95.437,540.592,538.875,0.0
53805.0,STARLINK-4763,PAYLOAD,2023-12-30 19:59:10,15.08837207,0.0001335,53.2163,239.9466,97.5703,262.544,6.6972e-05,7.78e-06,0.0,0 STARLINK-4763,1 53805U 22111AJ  23364.83275996  .00000778  00000-0  66972-4 0  9991,2 53805  53.2163 239.9466 0001335  97.5703 262.5440 15.08837207 72468,6917.889,95.438,540.677,538.83,0.0
53805.0,STARLINK-4763,PAYLOAD,2023-12-30 21:34:33,15.08837276,0.0001353,53.2162,239.6494,98.8803,261.2342,6.4756e-05,7.43e-06,0.0,0 STARLINK-4763,1 53805U 22111AJ  23364.89899949  .00000743  00000-0  64756-4 0  9997,2 53805  53.2162 239.6494 0001353  98.8803 261.2342 15.08837276 73284,6917.889,95.438,540.69,538.818,0.0
53805.0,STARLINK-4763,PAYLOAD,2023-12-31 21:25:20,15.08838755,0.0001388,53.2163,235.1896,92.1879,267.9273,6.1558e-05,6.92e-06,0.0,0 STARLINK-4763,1 53805U 22111AJ  23365.89260030  .00000692  00000-0  61558-4 0  9991,2 53805  53.2163 235.1896 0001388  92.1879 267.9273 15.08838755 73436,6917.884,95.438,540.709,538.789,0.0
53805.0,STARLINK-4763,PAYLOAD,2024-01-01 14:54:35,15.08839911,0.0001484,53.2162,231.9196,79.8298,280.2862,6.9484e-05,8.18e-06,0.0,0 STARLINK-4763,1 53805U 22111AJ  24001.62124035  .00000818  00000-0  69484-4 0  9990,2 53805  53.2162 231.9196 0001484  79.8298 280.2862 15.08839911 73545,6917.881,95.438,540.772,538.719,0.0
53805.0,STARLINK-4763,PAYLOAD,2024-01-01 22:51:30,15.08842695,0.0001481,53.2163,230.4323,79.1393,280.9766,8.557e-05,1.074e-05,0.0,0 STARLINK-4763,1 53805U 22111AJ  24001.95243826  .00001074  00000-0  85570-4 0  9995,2 53805  53.2163 230.4323 0001481  79.1393 280.9766 15.08842695 73596,6917.872,95.437,540.762,538.713,0.0
53805.0,STARLINK-4763,PAYLOAD,2024-01-02 00:26:53,15.08844182,0.000147,53.2163,230.1346,80.6674,279.4484,9.6134e-05,1.243e-05,0.0,0 STARLINK-4763,1 53805U 22111AJ  24002.01867682  .00001243  00000-0  96134-4 0  9991,2 53805  53.2163 230.1346 0001470  80.6674 279.4484 15.08844182 72799,6917.868,95.437,540.75,538.716,0.0
53805.0,STARLINK-4763,PAYLOAD,2024-01-02 21:06:49,15.08904863,0.0001372,53.2162,226.2685,103.0902,257.0244,0.00056007,8.652e-05,0.0,0 STARLINK-4763,1 53805U 22111AJ  24002.87974241  .00008652  00000-0  56007-3 0  9990,2 53805  53.2162 226.2685 0001372 103.0902 257.0244 15.08904863 73739,6917.682,95.433,540.496,538.598,0.0
53805.0,STARLINK-4763,PAYLOAD,2024-01-03 00:17:36,15.08899853,0.0001981,53.2162,225.674,84.7157,275.4062,0.00050225,7.727e-05,0.0,0 STARLINK-4763,1 53805U 22111AJ  24003.01222530  .00007727  00000-0  50225-3 0  9992,2 53805  53.2162 225.6740 0001981  84.7157 275.4062 15.08899853 72943,6917.697,95.434,540.933,538.192,0.0
53805.0,STARLINK-4763,PAYLOAD,2024-01-03 19:22:18,15.08838612,0.0001436,53.2163,222.105,98.7997,261.3158,-4.654e-05,-1.029e-05,0.0,0 STARLINK-4763,1 53805U 22111AJ  24003.80715333 -.00001029  00000-0 -46540-4 0  9994,2 53805  53.2163 222.1050 0001436  98.7997 261.3158 15.08838612 73062,6917.885,95.438,540.743,538.756,0.0
53805.0,STARLINK-4763,PAYLOAD,2024-01-03 20:57:41,15.0883771,0.0001411,53.2163,221.8076,99.732,260.3832,-5.334e-05,-1.137e-05,0.0,0 STARLINK-4763,1 53805U 22111AJ  24003.87339404 -.00001137  00000-0 -53340-4 0  9998,2 53805  53.2163 221.8076 0001411  99.7320 260.3832 15.08837710 73886,6917.887,95.438,540.729,538.776,0.0
53805.0,STARLINK-4763,PAYLOAD,2024-01-04 01:43:51,15.08829927,0.0001553,53.2162,220.9158,91.2728,268.8442,-0.00011698,-2.149e-05,0.0,0 STARLINK-4763,1 53805U 22111AJ  24004.07212188 -.00002149  00000-0 -11698-3 0  9993,2 53805  53.2162 220.9158 0001553  91.2728 268.8442 15.08829927 73108,6917.911,95.438,540.851,538.702,0.0
53805.0,STARLINK-4763,PAYLOAD,2024-01-04 14:26:56,15.0883954,0.0001641,53.2163,218.5384,81.6938,278.424,-0.00016123,-2.853e-05,0.0,0 STARLINK-4763,1 53805U 22111AJ  24004.60204139 -.00002853  00000-0 -16123-3 0  9999,2 53805  53.2163 218.5384 0001641  81.6938 278.4240 15.08839540 73999,6917.882,95.438,540.882,538.612,0.0
53805.0,STARLINK-4763,PAYLOAD,2024-01-04 19:13:05,15.08840281,0.0001691,53.2159,217.6468,75.4876,284.6304,-0.00015442,-2.745e-05,0.0,0 STARLINK-4763,1 53805U 22111AJ  24004.80076097 -.00002745  00000-0 -15442-3 0  9994,2 53805  53.2159 217.6468 0001691  75.4876 284.6304 15.08840281 73213,6917.88,95.438,540.914,538.575,0.0
53805.0,STARLINK-4763,PAYLOAD,2024-01-05 20:39:15,15.08828966,0.0001856,53.216,212.8864,79.8799,280.2402,0.00016076,2.271e-05,0.0,0 STARLINK-4763,1 53805U 22111AJ  24005.86059981  .00002271  00000-0  16076-3 0  9990,2 53805  53.2160 212.8864 0001856  79.8799 280.2402 15.08828966 74181,6917.914,95.438,541.063,538.495,0.0
